[{"OBJECT_NAME":"STARLINK-2746","OBJECT_ID":"2021-044AQ","EPOCH":"2026-03-09T12:58:15.089088","MEAN_MOTION":15.06413344,"ECCENTRICITY":0.00015298,"INCLINATION":53.0564,"RA_OF_ASC_NODE":112.2892,"ARG_OF_PERICENTER":98.1515,"MEAN_ANOMALY":261.9647,"EPHEMERIS_TYPE":0,"CLASSIFICATION_TYPE":"U","NORAD_CAT_ID":48676,"ELEMENT_SET_NO":999,"REV_AT_EPOCH":26382,"BSTAR":-1.4476566e-5,"MEAN_MOTION_DOT":-4.97e-6,"MEAN_MOTION_DDOT":0},{"OBJECT_NAME":"IRIDIUM 33 DEB","OBJECT_ID":"1997-051ACD","EPOCH":"2026-02-15T04:06:14.442336","MEAN_MOTION":15.0282309,"ECCENTRICITY":0.00183243,"INCLINATION":86.3384,"RA_OF_ASC_NODE":302.6959,"ARG_OF_PERICENTER":121.5358,"MEAN_ANOMALY":29.3036,"EPHEMERIS_TYPE":0,"CLASSIFICATION_TYPE":"U","NORAD_CAT_ID":46971,"ELEMENT_SET_NO":999,"REV_AT_EPOCH":65196,"BSTAR":0.0024316654,"MEAN_MOTION_DOT":0.00032805,"MEAN_MOTION_DDOT":0}]
